{"type":"FeatureCollection","features":[{"type":"Feature","geometry":{"type":"Point","coordinates":[100.42,0.95]},"properties":{"id":"T01","nama":"Tambusai — Torganda/Agrinas","kab_kota":"Rokan Hulu","tipe":"Hotspot konflik 2026","prioritas":"P1","catatan":"Bentrok Mar 2026; kelola Agrinas/KSO","polres_proksi":"Polres Rohul","sumber":"Proksi OSINT Fase 3 — bukan koordinat resmi","layer":"objek_titik","perusahaan":"PT TORGANDA"}},{"type":"Feature","geometry":{"type":"Point","coordinates":[100.5,0.82]},"properties":{"id":"T02","nama":"Rantau Kasai / adat Rohul","kab_kota":"Rokan Hulu","tipe":"Tenurial adat","prioritas":"P1","catatan":"Sengketa adat vs penguasaan pasca-Satgas","polres_proksi":"Polres Rohul","sumber":"Proksi OSINT Fase 3 — bukan koordinat resmi","layer":"objek_titik","perusahaan":"PT TORGANDA"}},{"type":"Feature","geometry":{"type":"Point","coordinates":[102.55,-0.55]},"properties":{"id":"T03","nama":"Batang Gansal / Penyaguan — Palma Satu","kab_kota":"Indragiri Hulu","tipe":"Klaster Duta Palma","prioritas":"P1","catatan":"~12.277 ha disebut Greenpeace/Pulitzer","polres_proksi":"Polres Inhu","sumber":"Proksi OSINT Fase 3 — bukan koordinat resmi","layer":"objek_titik","perusahaan":"PT PALMA SATU KEBUN PALMA 2"}},{"type":"Feature","geometry":{"type":"Point","coordinates":[102.4,-0.25]},"properties":{"id":"T04","nama":"Seberida — Seberida Subur / klaster","kab_kota":"Indragiri Hulu","tipe":"Klaster Duta Palma","prioritas":"P1","catatan":"Koridor Inhu utara-tengah","polres_proksi":"Polres Inhu","sumber":"Proksi OSINT Fase 3 — bukan koordinat resmi","layer":"objek_titik","perusahaan":"PT SEBERIDA SUBUR"}},{"type":"Feature","geometry":{"type":"Point","coordinates":[102.55,-0.38]},"properties":{"id":"T05","nama":"Rengat — fasilitas biodiesel Agrinas","kab_kota":"Indragiri Hulu","tipe":"Hilir / operasional","prioritas":"P2","catatan":"Bukan luas kebun; relevan dampak sosial","polres_proksi":"Polres Inhu","sumber":"Proksi OSINT Fase 3 — bukan koordinat resmi","layer":"objek_titik","perusahaan":"PT AGRINAS PALMA NUSANTARA"}},{"type":"Feature","geometry":{"type":"Point","coordinates":[101.55,-0.48]},"properties":{"id":"T06","nama":"Benai / Siberakun — Duta Palma Nusantara","kab_kota":"Kuantan Singingi","tipe":"Konflik adat/HGU","prioritas":"P1","catatan":"HGU disebut ~11.260 ha","polres_proksi":"Polres Kuansing","sumber":"Proksi OSINT Fase 3 — bukan koordinat resmi","layer":"objek_titik","perusahaan":"PT DUTA PALMA NUSANTARA"}},{"type":"Feature","geometry":{"type":"Point","coordinates":[101.62,-0.52]},"properties":{"id":"T07","nama":"Kopah — klaim kenegerian","kab_kota":"Kuantan Singingi","tipe":"Konflik adat/HGU","prioritas":"P1","catatan":"Benai–Kopah–Teluk Kuantan","polres_proksi":"Polres Kuansing","sumber":"Proksi OSINT Fase 3 — bukan koordinat resmi","layer":"objek_titik","perusahaan":"PT DUTA PALMA NUSANTARA"}},{"type":"Feature","geometry":{"type":"Point","coordinates":[102.05,0.1]},"properties":{"id":"T08","nama":"Tesso Nilo (inti TNTN)","kab_kota":"Pelalawan","tipe":"Konservasi (bukan kelola Agrinas)","prioritas":"P1","catatan":"~81.793 ha; aksi warga vs Satgas","polres_proksi":"Polres Pelalawan","sumber":"Proksi OSINT Fase 3 — bukan koordinat resmi","layer":"objek_titik"}},{"type":"Feature","geometry":{"type":"Point","coordinates":[102.2,0.18]},"properties":{"id":"T09","nama":"Ukui / Kerumutan — koridor Pelalawan","kab_kota":"Pelalawan","tipe":"Koridor sebaran","prioritas":"P2","catatan":"Sebaran sedang-tinggi; verifikasi objek Agrinas","polres_proksi":"Polres Pelalawan","sumber":"Proksi OSINT Fase 3 — bukan koordinat resmi","layer":"objek_titik","perusahaan":"PT CILIANDRA PERKASA"}},{"type":"Feature","geometry":{"type":"Point","coordinates":[101.85,1.35]},"properties":{"id":"T10","nama":"Lubuk Gaung / Siak Kecil — eks SSS","kab_kota":"Bengkalis","tipe":"Hotspot 2026","prioritas":"P1","catatan":"Lahan sitaan dikelola Agrinas","polres_proksi":"Polres Bengkalis","sumber":"Proksi OSINT Fase 3 — bukan koordinat resmi","layer":"objek_titik","perusahaan":"PT SINAR SAWIT SEJAHTERA"}},{"type":"Feature","geometry":{"type":"Point","coordinates":[101.35,1.45]},"properties":{"id":"T11","nama":"Mandau / Pinggir — sabuk Duri","kab_kota":"Bengkalis","tipe":"Koridor sebaran","prioritas":"P2","catatan":"Hotspot daratan utara dari peta sebaran","polres_proksi":"Polres Bengkalis","sumber":"Proksi OSINT Fase 3 — bukan koordinat resmi","layer":"objek_titik","perusahaan":"PT SINAR SAWIT SEJAHTERA"}},{"type":"Feature","geometry":{"type":"Point","coordinates":[100.95,1.55]},"properties":{"id":"T12","nama":"Pujud / Tanjung Sari — Torganda","kab_kota":"Rokan Hilir","tipe":"Border Rohul–Rohil","prioritas":"P2","catatan":"Sengketa plasma/PIR historis","polres_proksi":"Polres Rohil","sumber":"Proksi OSINT Fase 3 — bukan koordinat resmi","layer":"objek_titik","perusahaan":"PT TORGANDA"}},{"type":"Feature","geometry":{"type":"Point","coordinates":[100.8,1.7]},"properties":{"id":"T13","nama":"Eks Cibaliung — Agrinas plang","kab_kota":"Rokan Hilir","tipe":"Objek Satgas→Agrinas","prioritas":"P2","catatan":"~394,24 ha disebut dalam entri konflik","polres_proksi":"Polres Rohil","sumber":"Proksi OSINT Fase 3 — bukan koordinat resmi","layer":"objek_titik","perusahaan":"PT AGRINAS PALMA NUSANTARA"}},{"type":"Feature","geometry":{"type":"Point","coordinates":[102.75,-0.3]},"properties":{"id":"T14","nama":"Tapal batas Inhu–Inhil (Duta Palma)","kab_kota":"Indragiri Hilir","tipe":"Koridor selatan","prioritas":"P2","catatan":"Ketidakpastian tinggi; titik terbatas","polres_proksi":"Polres Inhil","sumber":"Proksi OSINT Fase 3 — bukan koordinat resmi","layer":"objek_titik","perusahaan":"PT DUTA PALMA NUSANTARA"}},{"type":"Feature","geometry":{"type":"Point","coordinates":[101.48,-0.42]},"properties":{"id":"T15","nama":"Bumi Mulya / Logas — KSO Sailan Antau Batuah","kab_kota":"Kuantan Singingi","tipe":"KSO operasional / bentrok 2026","prioritas":"P1","catatan":"~200 ha status quo; bentrok vs PT AA Jul 2026","polres_proksi":"Polres Kuansing","sumber":"Proksi OSINT Fase 3 — bukan koordinat resmi","layer":"objek_titik","perusahaan":"PT SAILAN ANTAU BATUAH"}},{"type":"Feature","geometry":{"type":"Point","coordinates":[101.15,0.32]},"properties":{"id":"T16","nama":"Padang Mutung — Koptan Kampar Jaya Bersama","kab_kota":"Kampar","tipe":"Mitra KSO terkonfirmasi","prioritas":"P1","catatan":"Bagian dari 1.070,59 ha KSO Jan 2026","polres_proksi":"Polres Kampar","sumber":"Proksi OSINT Fase 3 — bukan koordinat resmi","layer":"objek_titik","perusahaan":"KOPTAN KAMPAR JAYA BERSAMA"}},{"type":"Feature","geometry":{"type":"Point","coordinates":[101.25,0.4]},"properties":{"id":"T17","nama":"Kualu / Tambang — KSO Kampar","kab_kota":"Kampar","tipe":"Mitra KSO terkonfirmasi","prioritas":"P1","catatan":"~284 ha disebut dalam liputan Koptan","polres_proksi":"Polres Kampar","sumber":"Proksi OSINT Fase 3 — bukan koordinat resmi","layer":"objek_titik","perusahaan":"KSO KAMPAR"}},{"type":"Feature","geometry":{"type":"Point","coordinates":[101.35,0.28]},"properties":{"id":"T18","nama":"Perhentian Raja — KSO Kampar","kab_kota":"Kampar","tipe":"Mitra KSO terkonfirmasi","prioritas":"P2","catatan":"~185 ha disebut dalam liputan Koptan","polres_proksi":"Polres Kampar","sumber":"Proksi OSINT Fase 3 — bukan koordinat resmi","layer":"objek_titik","perusahaan":"KSO KAMPAR"}},{"type":"Feature","geometry":{"type":"Point","coordinates":[100.58,0.78]},"properties":{"id":"T19","nama":"Sontang — NSM KSO","kab_kota":"Rokan Hulu","tipe":"Mitra KSO / konflik desa","prioritas":"P1","catatan":"NSM 1.383,92 ha; konflik 3 desa (workspace)","polres_proksi":"Polres Rohul","sumber":"Proksi OSINT Fase 3 — bukan koordinat resmi","layer":"objek_titik","perusahaan":"PT NSM"}},{"type":"Feature","geometry":{"type":"Point","coordinates":[101.45,0.48]},"properties":{"id":"T20","nama":"Regional-3 Agrinas Pekanbaru","kab_kota":"Kota Pekanbaru","tipe":"Node administratif","prioritas":"P3","catatan":"Kantor evaluasi KSO; bukan objek kebun","polres_proksi":"Polresta Pekanbaru","sumber":"Proksi OSINT Fase 3 — bukan koordinat resmi","layer":"objek_titik","perusahaan":"PT AGRINAS PALMA NUSANTARA"}},{"type":"Feature","geometry":{"type":"Point","coordinates":[102.28,-0.37]},"properties":{"id":"OBJ-001","nama":"CRO 2 — Regional eks Duta Palma","kab_kota":"Indragiri Hulu","tipe":"Objek Agrinas (proksi kab)","prioritas":"P2","catatan":"Centroid kab proksi dari DQ Fase 3 — bukan koordinat resmi","polres_proksi":"Polres Indragiri Hulu","sumber":"DQ expand dari master_list mappable","layer":"objek_titik","objek_id":"OBJ-001","perusahaan":"Eks Duta Palma"}},{"type":"Feature","geometry":{"type":"Point","coordinates":[100.5,0.88]},"properties":{"id":"OBJ-003","nama":"CRO 4 — Regional eks Torganda (Rohul)","kab_kota":"Rokan Hulu","tipe":"Objek Agrinas (proksi kab)","prioritas":"P2","catatan":"Centroid kab proksi dari DQ Fase 3 — bukan koordinat resmi","polres_proksi":"Polres Rokan Hulu","sumber":"DQ expand dari master_list mappable","layer":"objek_titik","objek_id":"OBJ-003","perusahaan":"PT TORGANDA"}},{"type":"Feature","geometry":{"type":"Point","coordinates":[102.32,-0.32999999999999996]},"properties":{"id":"OBJ-005","nama":"Duta Palma Group","kab_kota":"Indragiri Hulu","tipe":"Objek Agrinas (proksi kab)","prioritas":"P1","catatan":"Centroid kab proksi dari DQ Fase 3 — bukan koordinat resmi","polres_proksi":"Polres Indragiri Hulu","sumber":"DQ expand dari master_list mappable","layer":"objek_titik","objek_id":"OBJ-005","perusahaan":"Eks Duta Palma"}},{"type":"Feature","geometry":{"type":"Point","coordinates":[100.53,0.91]},"properties":{"id":"OBJ-006","nama":"PT ADITYA PALMA NUSANTARA","kab_kota":"Rokan Hulu","tipe":"Objek Agrinas (proksi kab)","prioritas":"P2","catatan":"Centroid kab proksi dari DQ Fase 3 — bukan koordinat resmi","polres_proksi":"Polres Rokan Hulu","sumber":"DQ expand dari master_list mappable","layer":"objek_titik","objek_id":"OBJ-006","perusahaan":"PT ADITYA PALMA NUSANTARA"}},{"type":"Feature","geometry":{"type":"Point","coordinates":[102.33999999999999,-0.38]},"properties":{"id":"OBJ-007","nama":"PT BANYU BENING UTAMA","kab_kota":"Indragiri Hulu","tipe":"Objek Agrinas (proksi kab)","prioritas":"P2","catatan":"Centroid kab proksi dari DQ Fase 3 — bukan koordinat resmi","polres_proksi":"Polres Indragiri Hulu","sumber":"DQ expand dari master_list mappable","layer":"objek_titik","objek_id":"OBJ-007","perusahaan":"PT BANYU BENING UTAMA KEBUN 1"}},{"type":"Feature","geometry":{"type":"Point","coordinates":[101.55,-0.5700000000000001]},"properties":{"id":"OBJ-008","nama":"PT CERENTI SUBUR","kab_kota":"Kuantan Singingi","tipe":"Objek Agrinas (proksi kab)","prioritas":"P2","catatan":"Centroid kab proksi dari DQ Fase 3 — bukan koordinat resmi","polres_proksi":"Polres Kuantan Singingi","sumber":"DQ expand dari master_list mappable","layer":"objek_titik","objek_id":"OBJ-008","perusahaan":"PT KEBUN CERENTI SUBUR II"}},{"type":"Feature","geometry":{"type":"Point","coordinates":[101.56,-0.56]},"properties":{"id":"OBJ-009","nama":"PT DUTA PALMA NUSANTARA","kab_kota":"Kuantan Singingi","tipe":"Objek Agrinas (proksi kab)","prioritas":"P2","catatan":"Centroid kab proksi dari DQ Fase 3 — bukan koordinat resmi","polres_proksi":"Polres Kuantan Singingi","sumber":"DQ expand dari master_list mappable","layer":"objek_titik","objek_id":"OBJ-009","perusahaan":"PT DUTA PALMA NUSANTARA"}},{"type":"Feature","geometry":{"type":"Point","coordinates":[100.48,0.86]},"properties":{"id":"OBJ-010","nama":"PT ELUAN MAHKOTA","kab_kota":"Rokan Hulu","tipe":"Objek Agrinas (proksi kab)","prioritas":"P2","catatan":"Centroid kab proksi dari DQ Fase 3 — bukan koordinat resmi","polres_proksi":"Polres Rokan Hulu","sumber":"DQ expand dari master_list mappable","layer":"objek_titik","objek_id":"OBJ-010","perusahaan":"PT ELUAN MAHKOTA"}},{"type":"Feature","geometry":{"type":"Point","coordinates":[101.19,0.33999999999999997]},"properties":{"id":"OBJ-011","nama":"PT JOHAN SENTOSA","kab_kota":"Kampar","tipe":"Objek Agrinas (proksi kab)","prioritas":"P2","catatan":"Centroid kab proksi dari DQ Fase 3 — bukan koordinat resmi","polres_proksi":"Polres Kampar","sumber":"DQ expand dari master_list mappable","layer":"objek_titik","objek_id":"OBJ-011","perusahaan":"PT JOHAN SENTOSA"}},{"type":"Feature","geometry":{"type":"Point","coordinates":[102.3,-0.35]},"properties":{"id":"OBJ-012","nama":"PT KENCANA AMAL TANI","kab_kota":"Indragiri Hulu","tipe":"Objek Agrinas (proksi kab)","prioritas":"P2","catatan":"Centroid kab proksi dari DQ Fase 3 — bukan koordinat resmi","polres_proksi":"Polres Indragiri Hulu","sumber":"DQ expand dari master_list mappable","layer":"objek_titik","objek_id":"OBJ-012","perusahaan":"PT KENCANA AMAL TANI 2"}},{"type":"Feature","geometry":{"type":"Point","coordinates":[101.96,0.26]},"properties":{"id":"OBJ-013","nama":"PT MEKARSARI ALAM LESTARI","kab_kota":"Pelalawan","tipe":"Objek Agrinas (proksi kab)","prioritas":"P2","catatan":"Centroid kab proksi dari DQ Fase 3 — bukan koordinat resmi","polres_proksi":"Polres Pelalawan","sumber":"DQ expand dari master_list mappable","layer":"objek_titik","objek_id":"OBJ-013","perusahaan":"PT MEKARSARI ALAM LESTARI"}},{"type":"Feature","geometry":{"type":"Point","coordinates":[102.32,-0.32999999999999996]},"properties":{"id":"OBJ-014","nama":"PT PALMA SATU","kab_kota":"Indragiri Hulu","tipe":"Objek Agrinas (proksi kab)","prioritas":"P2","catatan":"Centroid kab proksi dari DQ Fase 3 — bukan koordinat resmi","polres_proksi":"Polres Indragiri Hulu","sumber":"DQ expand dari master_list mappable","layer":"objek_titik","objek_id":"OBJ-014","perusahaan":"PT PALMA SATU KEBUN PALMA 2"}},{"type":"Feature","geometry":{"type":"Point","coordinates":[102.33,-0.31999999999999995]},"properties":{"id":"OBJ-015","nama":"PT PANCA AGRO LESTARI","kab_kota":"Indragiri Hulu","tipe":"Objek Agrinas (proksi kab)","prioritas":"P2","catatan":"Centroid kab proksi dari DQ Fase 3 — bukan koordinat resmi","polres_proksi":"Polres Indragiri Hulu","sumber":"DQ expand dari master_list mappable","layer":"objek_titik","objek_id":"OBJ-015","perusahaan":"PT PANCA AGRO LESTARI"}},{"type":"Feature","geometry":{"type":"Point","coordinates":[102.33999999999999,-0.38]},"properties":{"id":"OBJ-016","nama":"PT SEBERIDA SUBUR","kab_kota":"Indragiri Hulu","tipe":"Objek Agrinas (proksi kab)","prioritas":"P2","catatan":"Centroid kab proksi dari DQ Fase 3 — bukan koordinat resmi","polres_proksi":"Polres Indragiri Hulu","sumber":"DQ expand dari master_list mappable","layer":"objek_titik","objek_id":"OBJ-016","perusahaan":"PT SEBERIDA SUBUR"}},{"type":"Feature","geometry":{"type":"Point","coordinates":[102.1,1.43]},"properties":{"id":"OBJ-017","nama":"PT SINAR SAWIT SEJAHTERA","kab_kota":"Bengkalis","tipe":"Objek Agrinas (proksi kab)","prioritas":"P2","catatan":"Centroid kab proksi dari DQ Fase 3 — bukan koordinat resmi","polres_proksi":"Polres Bengkalis","sumber":"DQ expand dari master_list mappable","layer":"objek_titik","objek_id":"OBJ-017","perusahaan":"PT SINAR SAWIT SEJAHTERA"}},{"type":"Feature","geometry":{"type":"Point","coordinates":[100.56,0.87]},"properties":{"id":"OBJ-018","nama":"PT TORGANDA","kab_kota":"Rokan Hulu","tipe":"Objek Agrinas (proksi kab)","prioritas":"P1","catatan":"Centroid kab proksi dari DQ Fase 3 — bukan koordinat resmi","polres_proksi":"Polres Rokan Hulu","sumber":"DQ expand dari master_list mappable","layer":"objek_titik","objek_id":"OBJ-018","perusahaan":"PT TORGANDA"}},{"type":"Feature","geometry":{"type":"Point","coordinates":[100.57,0.88]},"properties":{"id":"OBJ-019","nama":"PT TORGANDA KARYA PERDANA","kab_kota":"Rokan Hulu","tipe":"Objek Agrinas (proksi kab)","prioritas":"P2","catatan":"Centroid kab proksi dari DQ Fase 3 — bukan koordinat resmi","polres_proksi":"Polres Rokan Hulu","sumber":"DQ expand dari master_list mappable","layer":"objek_titik","objek_id":"OBJ-019","perusahaan":"PT TORGANDA KARYA PERDANA"}},{"type":"Feature","geometry":{"type":"Point","coordinates":[101.49,-0.56]},"properties":{"id":"OBJ-020","nama":"PT WANA JINGGA TIMUR","kab_kota":"Kuantan Singingi","tipe":"Objek Agrinas (proksi kab)","prioritas":"P2","catatan":"Centroid kab proksi dari DQ Fase 3 — bukan koordinat resmi","polres_proksi":"Polres Kuantan Singingi","sumber":"DQ expand dari master_list mappable","layer":"objek_titik","objek_id":"OBJ-020","perusahaan":"PT WANA JINGGA TIMUR"}},{"type":"Feature","geometry":{"type":"Point","coordinates":[102.98,-0.31999999999999995]},"properties":{"id":"OBJ-123","nama":"PT AGROSARI MAS","kab_kota":"Indragiri Hilir","tipe":"Objek Agrinas (proksi kab)","prioritas":"P2","catatan":"Centroid kab proksi dari DQ Fase 3 — bukan koordinat resmi","polres_proksi":"Polres Indragiri Hilir","sumber":"DQ expand dari master_list mappable","layer":"objek_titik","objek_id":"OBJ-123","perusahaan":"PT AGROSARI MAS"}},{"type":"Feature","geometry":{"type":"Point","coordinates":[101.24,0.31999999999999995]},"properties":{"id":"OBJ-124","nama":"PT ARIANDO TRI SEJAHTERA","kab_kota":"Kampar","tipe":"Objek Agrinas (proksi kab)","prioritas":"P2","catatan":"Centroid kab proksi dari DQ Fase 3 — bukan koordinat resmi","polres_proksi":"Polres Kampar","sumber":"DQ expand dari master_list mappable","layer":"objek_titik","objek_id":"OBJ-124","perusahaan":"PT ARIANDO TRI SEJAHTERA"}},{"type":"Feature","geometry":{"type":"Point","coordinates":[101.25,0.32999999999999996]},"properties":{"id":"OBJ-125","nama":"PT CILIANDRA PERKASA","kab_kota":"Kampar","tipe":"Objek Agrinas (proksi kab)","prioritas":"P2","catatan":"Centroid kab proksi dari DQ Fase 3 — bukan koordinat resmi","polres_proksi":"Polres Kampar","sumber":"DQ expand dari master_list mappable","layer":"objek_titik","objek_id":"OBJ-125","perusahaan":"PT CILIANDRA PERKASA"}},{"type":"Feature","geometry":{"type":"Point","coordinates":[103.01,-0.36]},"properties":{"id":"OBJ-126","nama":"PT CITRA PALMA KENCANA","kab_kota":"Indragiri Hilir","tipe":"Objek Agrinas (proksi kab)","prioritas":"P2","catatan":"Centroid kab proksi dari DQ Fase 3 — bukan koordinat resmi","polres_proksi":"Polres Indragiri Hilir","sumber":"DQ expand dari master_list mappable","layer":"objek_titik","objek_id":"OBJ-126","perusahaan":"PT CITRA PALMA KENCANA"}},{"type":"Feature","geometry":{"type":"Point","coordinates":[100.57,0.88]},"properties":{"id":"OBJ-127","nama":"PT GERBANG SAWIT INDAH","kab_kota":"Rokan Hulu","tipe":"Objek Agrinas (proksi kab)","prioritas":"P2","catatan":"Centroid kab proksi dari DQ Fase 3 — bukan koordinat resmi","polres_proksi":"Polres Rokan Hulu","sumber":"DQ expand dari master_list mappable","layer":"objek_titik","objek_id":"OBJ-127","perusahaan":"PT GERBANG SAWIT INDAH"}},{"type":"Feature","geometry":{"type":"Point","coordinates":[100.58,0.89]},"properties":{"id":"OBJ-128","nama":"PT GERBANG SAWIT INDAH II","kab_kota":"Rokan Hulu","tipe":"Objek Agrinas (proksi kab)","prioritas":"P2","catatan":"Centroid kab proksi dari DQ Fase 3 — bukan koordinat resmi","polres_proksi":"Polres Rokan Hulu","sumber":"DQ expand dari master_list mappable","layer":"objek_titik","objek_id":"OBJ-128","perusahaan":"PT SAWIT ASAHAN INDAH"}},{"type":"Feature","geometry":{"type":"Point","coordinates":[103.04,-0.32999999999999996]},"properties":{"id":"OBJ-129","nama":"PT INDOGREEN JAYA ABADI","kab_kota":"Indragiri Hilir","tipe":"Objek Agrinas (proksi kab)","prioritas":"P2","catatan":"Centroid kab proksi dari DQ Fase 3 — bukan koordinat resmi","polres_proksi":"Polres Indragiri Hilir","sumber":"DQ expand dari master_list mappable","layer":"objek_titik","objek_id":"OBJ-129","perusahaan":"PT INDOGREEN JAYA ABADI"}},{"type":"Feature","geometry":{"type":"Point","coordinates":[101.21,0.36]},"properties":{"id":"OBJ-130","nama":"PT KARYA TAMA BHAKTI MULIA","kab_kota":"Kampar","tipe":"Objek Agrinas (proksi kab)","prioritas":"P2","catatan":"Centroid kab proksi dari DQ Fase 3 — bukan koordinat resmi","polres_proksi":"Polres Kampar","sumber":"DQ expand dari master_list mappable","layer":"objek_titik","objek_id":"OBJ-130","perusahaan":"PT KARYA TAMA BHAKTI MULIA"}},{"type":"Feature","geometry":{"type":"Point","coordinates":[101.52,-0.53]},"properties":{"id":"OBJ-131","nama":"PT KARYA TAMA BHAKTI MULIA (KUANSING / EKS TRI BAKTI SARIMAS)","kab_kota":"Kuantan Singingi","tipe":"Objek Agrinas (proksi kab)","prioritas":"P2","catatan":"Centroid kab proksi dari DQ Fase 3 — bukan koordinat resmi","polres_proksi":"Polres Kuantan Singingi","sumber":"DQ expand dari master_list mappable","layer":"objek_titik","objek_id":"OBJ-131","perusahaan":"PT TRI BAKTI SARIMAS"}},{"type":"Feature","geometry":{"type":"Point","coordinates":[100.53,0.91]},"properties":{"id":"OBJ-132","nama":"PT PANCA SURYA AGRINDO","kab_kota":"Rokan Hulu","tipe":"Objek Agrinas (proksi kab)","prioritas":"P2","catatan":"Centroid kab proksi dari DQ Fase 3 — bukan koordinat resmi","polres_proksi":"Polres Rokan Hulu","sumber":"DQ expand dari master_list mappable","layer":"objek_titik","objek_id":"OBJ-132","perusahaan":"PT PANCA SURYA AGRINDO"}},{"type":"Feature","geometry":{"type":"Point","coordinates":[100.53999999999999,0.85]},"properties":{"id":"OBJ-133","nama":"PT PERDANA INTI SAWIT","kab_kota":"Rokan Hulu","tipe":"Objek Agrinas (proksi kab)","prioritas":"P2","catatan":"Centroid kab proksi dari DQ Fase 3 — bukan koordinat resmi","polres_proksi":"Polres Rokan Hulu","sumber":"DQ expand dari master_list mappable","layer":"objek_titik","objek_id":"OBJ-133","perusahaan":"PT PERDANA INTI SAWIT PERKASA"}},{"type":"Feature","geometry":{"type":"Point","coordinates":[100.55,0.86]},"properties":{"id":"OBJ-134","nama":"PT PERDANA INTI SAWIT PERKASA","kab_kota":"Rokan Hulu","tipe":"Objek Agrinas (proksi kab)","prioritas":"P2","catatan":"Centroid kab proksi dari DQ Fase 3 — bukan koordinat resmi","polres_proksi":"Polres Rokan Hulu","sumber":"DQ expand dari master_list mappable","layer":"objek_titik","objek_id":"OBJ-134","perusahaan":"PT PERDANA INTI SAWIT PERKASA"}},{"type":"Feature","geometry":{"type":"Point","coordinates":[100.56,0.87]},"properties":{"id":"OBJ-135","nama":"PT PRATAMA RIAU","kab_kota":"Rokan Hulu","tipe":"Objek Agrinas (proksi kab)","prioritas":"P2","catatan":"Centroid kab proksi dari DQ Fase 3 — bukan koordinat resmi","polres_proksi":"Polres Rokan Hulu","sumber":"DQ expand dari master_list mappable","layer":"objek_titik","objek_id":"OBJ-135","perusahaan":"PT PRATAMA RIAU"}},{"type":"Feature","geometry":{"type":"Point","coordinates":[103.02,-0.35]},"properties":{"id":"OBJ-136","nama":"PT SETIA AGRINDO LESTARI","kab_kota":"Indragiri Hilir","tipe":"Objek Agrinas (proksi kab)","prioritas":"P2","catatan":"Centroid kab proksi dari DQ Fase 3 — bukan koordinat resmi","polres_proksi":"Polres Indragiri Hilir","sumber":"DQ expand dari master_list mappable","layer":"objek_titik","objek_id":"OBJ-136","perusahaan":"PT SETIA AGRINDO LESTARI"}},{"type":"Feature","geometry":{"type":"Point","coordinates":[101.28,0.36]},"properties":{"id":"OBJ-137","nama":"PT SUBUR ARUM MAKMUR","kab_kota":"Kampar","tipe":"Objek Agrinas (proksi kab)","prioritas":"P2","catatan":"Centroid kab proksi dari DQ Fase 3 — bukan koordinat resmi","polres_proksi":"Polres Kampar","sumber":"DQ expand dari master_list mappable","layer":"objek_titik","objek_id":"OBJ-137","perusahaan":"PT SUBUR ARUM MAKMUR"}},{"type":"Feature","geometry":{"type":"Point","coordinates":[102.04,0.27]},"properties":{"id":"OBJ-138","nama":"Kawasan TNTN (sawit di Taman Nasional Tesso Nilo)","kab_kota":"Pelalawan","tipe":"Objek Agrinas (proksi kab)","prioritas":"P1","catatan":"Centroid kab proksi dari DQ Fase 3 — bukan koordinat resmi","polres_proksi":"Polres Pelalawan","sumber":"DQ expand dari master_list mappable","layer":"objek_titik","objek_id":"OBJ-138","perusahaan":"Tesso Nilo / konservasi"}},{"type":"Feature","geometry":{"type":"Point","coordinates":[100.55,0.88]},"properties":{"id":"rokan-hulu","nama":"Rokan Hulu","n_kasus":13,"weight":13,"skor":95.0,"level_risiko":"TINGGI","layer":"densitas_kasus"}},{"type":"Feature","geometry":{"type":"Point","coordinates":[100.85,1.85]},"properties":{"id":"rokan-hilir","nama":"Rokan Hilir","n_kasus":17,"weight":17,"skor":86.0,"level_risiko":"TINGGI","layer":"densitas_kasus"}},{"type":"Feature","geometry":{"type":"Point","coordinates":[102.35,-0.35]},"properties":{"id":"indragiri-hulu","nama":"Indragiri Hulu","n_kasus":10,"weight":10,"skor":82.0,"level_risiko":"TINGGI","layer":"densitas_kasus"}},{"type":"Feature","geometry":{"type":"Point","coordinates":[101.55,-0.55]},"properties":{"id":"kuantan-singingi","nama":"Kuantan Singingi","n_kasus":9,"weight":9,"skor":64.0,"level_risiko":"SEDANG","layer":"densitas_kasus"}},{"type":"Feature","geometry":{"type":"Point","coordinates":[102.15,0.25]},"properties":{"id":"pelalawan","nama":"Pelalawan","n_kasus":7,"weight":7,"skor":62.0,"level_risiko":"SEDANG","layer":"densitas_kasus"}},{"type":"Feature","geometry":{"type":"Point","coordinates":[103.05,-0.35]},"properties":{"id":"indragiri-hilir","nama":"Indragiri Hilir","n_kasus":5,"weight":5,"skor":61.0,"level_risiko":"SEDANG","layer":"densitas_kasus"}},{"type":"Feature","geometry":{"type":"Point","coordinates":[101.15,0.35]},"properties":{"id":"kampar","nama":"Kampar","n_kasus":6,"weight":6,"skor":61.0,"level_risiko":"SEDANG","layer":"densitas_kasus"}},{"type":"Feature","geometry":{"type":"Point","coordinates":[101.95,1.48]},"properties":{"id":"bengkalis","nama":"Bengkalis","n_kasus":4,"weight":4,"skor":55.0,"level_risiko":"SEDANG","layer":"densitas_kasus"}},{"type":"Feature","geometry":{"type":"Point","coordinates":[101.45,0.53]},"properties":{"id":"kota-pekanbaru","nama":"Kota Pekanbaru","n_kasus":11,"weight":11,"skor":37.0,"level_risiko":"RENDAH","layer":"densitas_kasus"}},{"type":"Feature","geometry":{"type":"Point","coordinates":[101.45,1.67]},"properties":{"id":"kota-dumai","nama":"Kota Dumai","n_kasus":6,"weight":6,"skor":36.0,"level_risiko":"RENDAH","layer":"densitas_kasus"}},{"type":"Feature","geometry":{"type":"Point","coordinates":[102.05,0.85]},"properties":{"id":"siak","nama":"Siak","n_kasus":4,"weight":4,"skor":36.0,"level_risiko":"RENDAH","layer":"densitas_kasus"}},{"type":"Feature","geometry":{"type":"Polygon","coordinates":[[[102.58123475237772,-0.5749878019021772],[102.57849595738855,-0.578070988805336],[102.57545426747933,-0.5808557979493454],[102.57214201398774,-0.583312628484805],[102.56859440417998,-0.5854153657780312],[102.56484914701855,-0.5871416589939326],[102.56094605233869,-0.5884731586719691],[102.55692660769373,-0.5893957117699024],[102.55283353736722,-0.589899512102137],[102.54871034823955,-0.589979204573588],[101.61871034823956,-0.559979204573588],[101.61482943951613,-0.5596644085331242],[101.61099752362765,-0.5589737786103054],[101.60725090929213,-0.5579138587606512],[101.60362509696616,-0.5564946920884666],[101.60015444246574,-0.5547297256849792],[101.53015444246573,-0.5147297256849792],[101.52695806252935,-0.5126966224188163],[101.52396834506176,-0.5103702640946106],[101.45396834506177,-0.4503702640946106],[101.45112624418606,-0.4476822366364492],[101.448560303262,-0.4447294453844541],[101.44629506395736,-0.44154013199498376],[101.44435219191135,-0.43814480031510106],[101.44275026951604,-0.43457592463178973],[101.44150461818694,-0.4308676390751071],[101.4406271518231,-0.42705541114594536],[101.44012626285776,-0.4231757024909096],[101.44000674198989,-0.4192656201687956],[101.44026973236407,-0.415362561744092],[101.44091271863698,-0.4115038576019711],[101.44192955103512,-0.4077264139058099],[101.44331050417368,-0.4040663596121344],[101.44504237007396,-0.40055870091907625],[101.44710858448965,-0.39723698645333205],[101.4494893853338,-0.3941329863979086],[101.45216200169118,-0.3912763886296029],[101.45510087160824,-0.38869451477247735],[101.45827788657778,-0.3864120588831064],[101.46166266037963,-0.3844508512669116],[101.46522281970653,-0.3828296496845383],[101.46892431379506,-0.3815639599452588],[101.47273174010061,-0.3806658876033161],[102.39273174010061,-0.21066588760331612],[102.3970221433378,-0.21011099938956487],[102.40134737904985,-0.2100226993195386],[102.4056568542495,-0.21040202025355334],[102.7556568542495,-0.26040202025355336],[102.75958852687491,-0.26116624982867054],[102.76342406195457,-0.2623198386330423],[102.76712500322361,-0.26385122042735987],[102.77065424389647,-0.26574504110256864],[102.77397639871107,-0.26798231262493016],[102.77705815871235,-0.27054060341594016],[102.7798686252183,-0.2733942632582953],[102.78237961961962,-0.27651468047293115],[102.7845659659073,-0.2798705687885943],[102.78640574309506,-0.2834282810277063],[102.7878805050059,-0.28715214646340664],[102.78897546521931,-0.2910048284653288],[102.78967964532443,-0.2949476988482418],[102.789985984993,-0.29894122517022154],[102.78989141276845,-0.3029453670971804],[102.78939687686126,-0.3069199778596813],[102.7885073356419,-0.31082520677690534],[102.78723170792662,-0.3146218988119435],[102.78558278355476,-0.31827198715234645],[102.7835770951537,-0.3217388748797979],[102.78123475237773,-0.3249878019021772],[102.58123475237772,-0.5749878019021772]]]},"properties":{"id":"K1","nama":"Koridor Selatan — Duta Palma","tipe":"koridor_proksi_hull","anggota_kab":"Indragiri Hulu; Kuantan Singingi; Indragiri Hilir (tapal batas)","polres_proksi":"Inhu; Kuansing; Inhil","karakter":"Klaster konsesi/eks-Duta Palma + konflik adat/tenurial","prioritas":"P1","layer":"koridor","catatan":"Hull/envelope dari titik objek Agrinas di anggota kab — tetap proksi, bukan koridor resmi.","geom_source":"convex_hull_objek","n_titik":7}},{"type":"Feature","geometry":{"type":"Polygon","coordinates":[[[100.61605361252576,0.7626755368382696],[100.61416150118166,0.7591915440982289],[100.6119337895825,0.7559119722081551],[100.60939236261494,0.7528690394583654],[100.60656218708398,0.7500926394124204],[100.60347106644079,0.7476100472347977],[100.6001493676435,0.7454456517415377],[100.59662972283428,0.7436207158061796],[100.59294670876344,0.7421531674747454],[100.5891365071097,0.7410574238418376],[100.58523654903397,0.7403442494180883],[100.58128514745809,0.7400206503803404],[100.57732112068132,0.7400898057434452],[100.57338341103207,0.7405510361298375],[100.56951070230105,0.7413998104436945],[100.56574103971441,0.7426277903841115],[100.56211145618,0.7442229123600035],[100.48211145618001,0.7842229123600034],[100.47888047230276,0.786029931559601],[100.47583038477273,0.7881279166076912],[100.47298731868617,0.7904988975081056],[100.47037562592615,0.7931225659570605],[100.46801767658009,0.7959764492910771],[100.46593366733183,0.7990361029734269],[100.38593366733183,0.9290361029734269],[100.38397503440822,0.932616046073713],[100.38239133661715,0.9363769152335243],[100.38119905652646,0.940279568653452],[100.38041060296673,0.9442833888935315],[100.38003418188447,0.9483467056052249],[100.38007371093747,0.952427229221708],[100.3805287787213,0.9564824910927616],[100.38139464905102,0.9604702854835014],[100.3826623102537,0.9643491088367756],[100.38431856895879,0.9680785917275465],[100.76431856895879,1.7180785917275465],[100.76628719598442,1.7215278156208926],[100.76858816041508,1.7247648204897938],[100.77119877957664,1.7277576962683374],[100.77409331825,1.7304769394904407],[100.77724324236627,1.7328957441320283],[100.7806175002928,1.7349902658621006],[100.78418282893693,1.7367398570977322],[100.78790408165027,1.7381272705458515],[100.7917445747007,1.7391388292253078],[100.79566644889702,1.7397645612931654],[100.79963104280088,1.73999829834612],[100.80359927384742,1.739837736227994],[100.80753202361717,1.7392844577438742],[100.81139052346151,1.7383439170569799],[100.81513673668006,1.737025385922074],[100.81873373348259,1.7353418622854448],[100.8221460550392,1.7333099421524698],[100.82534006302983,1.7309496559858748],[100.82828427124745,1.7282842712474624],[100.97828427124746,1.5782842712474625],[100.98083644777157,1.5754777057214988],[100.98311128099414,1.572441993470437],[100.98508831104375,1.5692044377188423],[100.98674975649354,1.5657941570736214],[100.98808067428746,1.5622418236310007],[100.98906909413837,1.5585793871114029],[100.98970612618882,1.5548397875033624],[100.98998604096656,1.5510566588009569],[100.98990632091541,1.5472640264993487],[100.9894676830383,1.5434960015691606],[100.9886740724484,1.5397864736620854],[100.98753262688686,1.5361688063070396],[100.98605361252577,1.5326755368382696],[100.61605361252576,0.7626755368382696]]]},"properties":{"id":"K2","nama":"Koridor Utara-Barat — Torganda/KSO","tipe":"koridor_proksi_hull","anggota_kab":"Rokan Hulu; Rokan Hilir (border)","polres_proksi":"Rohul; Rohil","karakter":"Hotspot konflik 2025–2026; kelola Agrinas/KSO; adat","prioritas":"P1","layer":"koridor","catatan":"Hull/envelope dari titik objek Agrinas di anggota kab — tetap proksi, bukan koridor resmi.","geom_source":"convex_hull_objek","n_titik":5}},{"type":"Feature","geometry":{"type":"Polygon","coordinates":[[[102.06882352941176,0.06470588235294089],[102.06524664249874,0.06301973644610219],[102.0615207462606,0.061695008085122495],[102.05768225483142,0.06074464417808479],[102.05376868276674,0.060177932873799946],[102.04981827840437,0.06000041278635886],[102.04586965005349,0.06021381886484458],[102.0419613886659,0.06081606543723247],[102.03813169067675,0.061801266594194805],[102.03441798470111,0.06315979371359355],[102.03085656573445,0.06487836956345983],[102.02748224043256,0.06694019806376778],[102.02432798693705,0.06932512843880764],[102.02142463257168,0.07200985215585541],[102.01880055255906,0.07496813072540685],[102.01648139270229,0.07817105213662642],[102.01448981874204,0.08158731342179992],[101.31448981874203,1.4315873134217998],[101.31286346154351,1.4351380515587335],[101.31159112647995,1.4388304684555966],[101.31068494270484,1.442629364350451],[101.31015354885623,1.4464985244184627],[101.31000201070475,1.450401064007355],[101.31023177286161,1.4542997802583155],[101.31084064500716,1.4581575067603623],[101.31182282277122,1.4619374678572534],[101.31316894306602,1.4656036292293362],[101.31486617334441,1.4691210414082443],[101.31689833393237,1.4724561729497234],[101.31924605226962,1.4755772300884489],[101.32188694758797,1.4784544598275757],[101.32479584426694,1.4810604335736666],[101.32794501183257,1.4833703086131151],[101.33130442931166,1.485362064937409],[101.33484207142138,1.4870167151595837],[101.33852421386581,1.4883184855207316],[101.34231575482923,1.489254966261042],[101.34618054960126,1.4898172299218768],[101.35008175514395,1.4899999164511182],[101.35398218131591,1.4898012843004742],[101.35784464540552,1.4892232270276369],[101.85784464540552,1.389223227027637],[101.86166117997372,1.3882624735428897],[101.86536482715275,1.3869313157979222],[101.86891973336164,1.3852426402178426],[101.87229148492341,1.3832127942201355],[101.87544744121065,1.380861427961613],[101.87835705062685,1.37821130411282],[101.88099214636458,1.3752880775013934],[101.88332721907754,1.372120046757563],[101.88533966382676,1.368737880366018],[101.88700999891017,1.3651743197761264],[101.8883220544576,1.3614638624445832],[102.23832205445761,0.1914638624445831],[102.23925957299555,0.18766067413527313],[102.23982061229195,0.18378402387597018],[102.23999979226667,0.17987108676151012],[102.23979539467533,0.17595938585912646],[102.23920937958634,0.1720864323814107],[102.23824736658497,0.1682893659729535],[102.23691858088424,0.16460459856013318],[102.23523576485994,0.16106746517934997],[102.23321505585777,0.15771188513208476],[102.23087583144438,0.15457003671613218],[102.22824052358642,0.1516720486521696],[102.2253344035395,0.14904571116472276],[102.2221853395097,0.14671620948811478],[102.21882352941176,0.14470588235294088],[102.06882352941176,0.06470588235294089]]]},"properties":{"id":"K3","nama":"Hotspot Timur — TNTN & SSS","tipe":"koridor_proksi_hull","anggota_kab":"Pelalawan; Bengkalis","polres_proksi":"Pelalawan; Bengkalis","karakter":"Konservasi TNTN vs kelola Agrinas di Bengkalis — bedakan status","prioritas":"P1","layer":"koridor","catatan":"Hull/envelope dari titik objek Agrinas di anggota kab — tetap proksi, bukan koridor resmi.","geom_source":"convex_hull_objek","n_titik":4}},{"type":"Feature","geometry":{"type":"Polygon","coordinates":[[[101.38072885118389,0.3056073759865784],[101.38309853845492,0.3024607825364032],[101.38514724296583,0.2990963690763534],[101.38685509680525,0.29554676299026605],[101.38820553756089,0.2918463876216499],[101.38918546893846,0.28803112844324036],[101.38978538776674,0.2841379850471295],[101.38999947615734,0.2802047123303966],[101.38982565792548,0.27626945435594813],[101.38926561872431,0.27237037443930806],[101.38832478969785,0.2685452850487003],[101.3870122948108,0.26483128110757564],[101.38534086236636,0.2612643802557388],[101.38332670156963,0.257879173557749],[101.38098934533423,0.25470849004595125],[101.37835146085605,0.2517830783513307],[101.3754386297916,0.24913130850966736],[101.3722791001723,0.24677889683481463],[101.36890351246102,0.24474865652722141],[101.36534460240715,0.24306027643624686],[101.36163688358214,0.24173013012178327],[101.35781631267406,0.24077111706686868],[101.35391994078704,0.24019253758117634],[101.3499855541274,0.24000000260854054],[101.34605130756086,0.24019537931318735],[101.34215535459447,0.2407767729723633],[101.14215535459448,0.2807767729723633],[101.13832955463576,0.28174035147835264],[101.13461728789765,0.28307613010021454],[101.13105466830605,0.2847711140254755],[101.12767635397924,0.28680881399618974],[101.12451521006452,0.28916940672086044],[101.12160198901718,0.29182992772073263],[101.11896503143244,0.29476449473439775],[101.11662999034048,0.2979445595073703],[101.11461958164695,0.3013391855171595],[101.11295336314646,0.304915348932052],[101.1116475442592,0.3086382598757989],[101.11071482834132,0.31247170087285625],[101.11016428910327,0.3163783791816955],[101.11000128233832,0.3203202895885885],[101.11022739381997,0.32425908413251386],[101.11084042387513,0.3281564451644001],[101.1118344087831,0.33197445811148685],[101.11319967879227,0.3356759803204508],[101.11492295219004,0.33922500239109327],[101.11698746451091,0.34258699848543683],[101.11937313162564,0.3457292622043318],[101.1220567451251,0.34862122476407353],[101.12501219809783,0.3512347523777205],[101.22501219809783,0.4312347523777205],[101.22815216795392,0.43350630142057084],[101.23149722539964,0.4354633237597427],[101.23501597007603,0.4370874486482678],[101.2386753712063,0.43836343027786867],[101.24244107765865,0.43927929089275325],[101.24627774040361,0.43982643322589987],[101.25014934433847,0.4399997212023855],[101.25401954636442,0.4397975281521894],[101.25785201654249,0.43922175207989234],[101.26161077912599,0.4382777978479351],[101.26526055026817,0.436974526440682],[101.26876706923483,0.43532417178555394],[101.272097420013,0.43334222591203675],[101.27522034029656,0.4310472935265895],[101.2781065149483,0.4284609173685702],[101.2807288511839,0.4256073759865784],[101.38072885118389,0.3056073759865784]]]},"properties":{"id":"K4","nama":"Koridor Tengah — Kampar KSO","tipe":"koridor_proksi_hull","anggota_kab":"Kampar","polres_proksi":"Kampar","karakter":"KSO terkonfirmasi 1.070 ha + Ciliandra/Johan Sentosa; naik dari periferi pasca Fase 2","prioritas":"P2","layer":"koridor","catatan":"Hull/envelope dari titik objek Agrinas di anggota kab — tetap proksi, bukan koridor resmi.","geom_source":"convex_hull_objek","n_titik":3}},{"type":"Feature","geometry":{"type":"Polygon","coordinates":[[[101.3,0.32999999999999996],[101.60000000000001,0.32999999999999996],[101.60000000000001,0.63],[101.3,0.63],[101.3,0.32999999999999996]]]},"properties":{"id":"K5","nama":"Zona pendukung / periferi","tipe":"koridor_proksi_hull","anggota_kab":"Dumai; Siak; Pekanbaru; Meranti","polres_proksi":"Dumai; Siak; Pekanbaru; Meranti","karakter":"Sebaran atau sinyal sekunder; node administratif Pekanbaru","prioritas":"P3","layer":"koridor","catatan":"Hull/envelope dari titik objek Agrinas di anggota kab — tetap proksi, bukan koridor resmi.","geom_source":"envelope_objek","n_titik":1}}],"schema_by_layer":{"objek_titik":["id","nama","perusahaan","kab_kota","prioritas","polres_proksi","layer"],"koridor":["id","nama","anggota_kab","geom_source","layer"],"densitas_kasus":["id","nama","n_kasus","level_risiko","layer"]}}